OBJECT_NAME,OBJECT_ID,EPOCH,MEAN_MOTION,ECCENTRICITY,INCLINATION,RA_OF_ASC_NODE,ARG_OF_PERICENTER,MEAN_ANOMALY,EPHEMERIS_TYPE,CLASSIFICATION_TYPE,NORAD_CAT_ID,ELEMENT_SET_NO,REV_AT_EPOCH,BSTAR,MEAN_MOTION_DOT,MEAN_MOTION_DDOT
INTELSAT 906 (IS-906),2002-041A,2026-06-20T04:34:47.170272,1.00270726,.0004435,5.8098,72.8851,0.9940,327.3730,0,U,27513,999,8705,0,.6E-7,0
NIMIQ 2,2002-062A,2026-06-20T06:25:22.919232,1.00272421,.0005585,9.4541,56.8684,25.9598,172.8061,0,U,27632,999,4421,0,-.78E-6,0
USA 167,2003-008A,2026-06-20T09:24:03.839904,1.00272738,.0003974,10.9686,43.3827,314.8643,289.6742,0,U,27691,999,680,0,-.6E-7,0
USA 169 (MILSTAR-2 4),2003-012A,2026-06-19T22:09:16.142400,1.00272889,.01007587,12.3541,29.8224,9.2727,353.5115,0,U,27711,999,3298,0,-.271E-5,0
ASIASAT 4,2003-014A,2026-06-20T11:07:18.165216,1.00272462,.0002905,4.7120,75.7059,15.9102,131.4326,0,U,27718,999,4533,0,-.228E-5,0
HELLAS-SAT 2,2003-020A,2026-06-19T23:05:37.872960,1.00271497,.00026171,7.3623,67.8529,28.2464,148.4599,0,U,27811,999,4287,0,-.92E-6,0
THURAYA-2,2003-026A,2026-06-20T06:11:41.872992,1.00272422,.000297,8.8445,31.9625,12.7773,0.6575,0,U,27825,999,8438,0,.116E-5,0
OPTUS C1,2003-028B,2026-06-19T13:36:58.291776,1.00272247,.00055809,6.8966,69.3822,14.9031,183.4988,0,U,27831,999,5308,0,-.159E-5,0
USA 170,2003-040A,2026-06-20T00:13:14.759904,1.00269476,.0001755,10.5070,47.9240,42.2712,205.5706,0,U,27875,999,3302,0,.116E-5,0
GALAXY 13 (HORIZONS-1),2003-044A,2026-06-20T10:43:38.786880,1.00272486,.0002186,1.4272,83.8231,358.3330,197.4020,0,U,27954,999,4660,0,.128E-5,0
YAMAL 202,2003-053A,2026-06-21T13:34:23.695392,1.00270906,.000318,6.3538,70.8853,7.2732,198.7465,0,U,28089,999,8274,0,-.84E-6,0
UFO 11 (USA 174),2003-057A,2026-06-20T02:55:29.004672,1.00271747,.00024154,8.9416,33.8126,64.0509,289.9601,0,U,28117,999,8247,0,-.114E-5,0
USA 176 (DSP 22),2004-004A,2026-06-20T03:22:18.617664,1.00275597,.00013871,12.0668,26.0523,309.2865,294.2599,0,U,28158,999,3296,0,-.306E-5,0
ABS-4 (MOBISAT-1),2004-007A,2026-06-20T06:18:38.860128,1.00274282,.0005075,6.0489,71.9702,16.4739,335.6938,0,U,28184,999,5236,0,.32E-6,0
INTELSAT 10-02,2004-022A,2026-06-20T09:24:12.426336,1.00270649,.0000101,0.0164,305.9154,152.4907,310.2364,0,U,28358,999,8058,0,-.16E-6,0
ANIK F2,2004-027A,2026-06-20T08:38:38.700096,1.00271596,.0004092,3.2965,79.4060,10.0614,197.6315,0,U,28378,999,4129,0,-.55E-6,0
AMC-15,2004-041A,2026-06-20T08:38:38.700096,1.00271527,.0002305,0.0144,359.6314,75.3144,218.2288,0,U,28446,999,7933,0,-.93E-6,0
NSS-10,2005-003A,2026-06-20T06:47:11.621760,1.00272014,.0002852,6.4581,70.4174,12.1151,250.3009,0,U,28526,999,5318,0,-.258E-5,0
INMARSAT 4-F1,2005-009A,2026-06-20T08:32:38.552928,1.00271541,.0002706,5.1732,42.7714,45.6778,126.3856,0,U,28628,999,7770,0,.26E-6,0
DIRECTV 8,2005-019A,2026-06-20T07:32:38.671008,1.00271999,.0003095,0.0188,33.3038,61.8276,167.4965,0,U,28659,999,7710,0,-.3E-7,0
GALAXY 28 (G-28),2005-022A,2026-06-20T09:16:43.142880,1.00270752,.0002814,3.3063,78.8948,10.7889,291.0100,0,U,28702,999,5200,0,-.205E-5,0
THAICOM 4,2005-028A,2026-06-20T10:42:39.151008,1.00271473,.0001774,0.2549,85.8466,349.9796,112.9969,0,U,28786,999,5228,0,-.367E-5,0
ANIK F1R,2005-036A,2026-06-20T10:24:08.129088,1.00271216,.0004175,4.3220,76.5421,5.3355,235.5023,0,U,28868,999,4648,0,-.8E-6,0
SYRACUSE 3A,2005-041B,2026-06-19T23:04:42.049920,1.00269106,.00029295,4.6490,75.8044,5.3723,219.8458,0,U,28885,999,7577,0,.122E-5,0
INMARSAT 4-F2,2005-044A,2026-06-19T23:49:24.967776,1.00270761,.00029721,5.0996,43.7044,35.9627,329.3724,0,U,28899,999,7555,0,-.268E-5,0
METEOSAT-9 (MSG-2),2005-049B,2026-06-19T22:17:31.522848,1.00273646,.00017746,9.3683,54.1432,346.4633,247.5699,0,U,28912,999,702,0,.115E-5,0
EUTELSAT 174A,2005-052A,2026-06-20T08:31:31.160928,1.00272302,.0006308,4.2287,76.4905,11.1427,122.7677,0,U,28924,999,5236,0,.3E-7,0
ECHOSTAR 10,2006-003A,2026-06-20T08:38:38.700096,1.00270944,.000143,0.0164,1.1897,77.7268,209.1028,0,U,28935,999,7449,0,-.6E-6,0
SPAINSAT,2006-007A,2026-06-20T08:06:39.324960,1.00272395,.0004829,0.5725,86.4734,359.2835,274.2855,0,U,28945,999,7424,0,-.221E-5,0
JCSAT-5A,2006-010A,2026-06-20T11:39:37.141056,1.00271456,.000201,1.1192,84.1884,350.8139,140.6470,0,U,29045,999,7380,0,-.332E-5,0
ASTRA 1KR,2006-012A,2026-06-20T07:47:11.735232,1.00273147,.0003417,0.4831,83.2137,1.9229,319.1766,0,U,29055,999,4572,0,.114E-5,0
GALAXY 16 (G-16),2006-023A,2026-06-20T08:56:15.105120,1.00271600,.0002593,0.0399,169.8247,277.9696,215.8483,0,U,29236,999,7300,0,-.131E-5,0
