INTELSAT 906 (IS-906)   
1 27513U 02041A   26171.19082373  .00000006  00000+0  00000+0 0  9999
2 27513   5.8098  72.8851 0004435   0.9940 327.3730  1.00270726 87059
NIMIQ 2                 
1 27632U 02062A   26171.26762638 -.00000078  00000+0  00000+0 0  9991
2 27632   9.4541  56.8684 0005585  25.9598 172.8061  1.00272421 44218
USA 167                 
1 27691U 03008A   26171.39171111 -.00000006  00000+0  00000+0 0  9992
2 27691  10.9686  43.3827 0003974 314.8643 289.6742  1.00272738  6808
USA 169 (MILSTAR-2 4)   
1 27711U 03012A   26170.92310350 -.00000271  00000+0  00000+0 0  9992
2 27711  12.3541  29.8224 0100758   9.2727 353.5115  1.00272889 32983
ASIASAT 4               
1 27718U 03014A   26171.46340469 -.00000228  00000+0  00000+0 0  9997
2 27718   4.7120  75.7059 0002905  15.9102 131.4326  1.00272462 45337
HELLAS-SAT 2            
1 27811U 03020A   26170.96224390 -.00000092  00000+0  00000+0 0  9995
2 27811   7.3623  67.8529 0002617  28.2464 148.4599  1.00271497 42873
THURAYA-2               
1 27825U 03026A   26171.25812353  .00000116  00000+0  00000+0 0  9997
2 27825   8.8445  31.9625 0002970  12.7773   0.6575  1.00272422 84382
OPTUS C1                
1 27831U 03028B   26170.56734134 -.00000159  00000+0  00000+0 0  9997
2 27831   6.8966  69.3822 0005580  14.9031 183.4988  1.00272247 53086
USA 170                 
1 27875U 03040A   26171.00919861  .00000116  00000+0  00000+0 0  9993
2 27875  10.5070  47.9240 0001755  42.2712 205.5706  1.00269476 33024
GALAXY 13 (HORIZONS-1)  
1 27954U 03044A   26171.44697670  .00000128  00000+0  00000+0 0  9997
2 27954   1.4272  83.8231 0002186 358.3330 197.4020  1.00272486 46601
YAMAL 202               
1 28089U 03053A   26172.56555203 -.00000084  00000+0  00000+0 0  9998
2 28089   6.3538  70.8853 0003180   7.2732 198.7465  1.00270906 82744
UFO 11 (USA 174)        
1 28117U 03057A   26171.12186348 -.00000114  00000+0  00000+0 0  9999
2 28117   8.9416  33.8126 0002415  64.0509 289.9601  1.00271747 82473
USA 176 (DSP 22)        
1 28158U 04004A   26171.14049326 -.00000306  00000+0  00000+0 0  9996
2 28158  12.0668  26.0523 0001387 309.2865 294.2599  1.00275597 32965
ABS-4 (MOBISAT-1)       
1 28184U 04007A   26171.26294977  .00000032  00000+0  00000+0 0  9990
2 28184   6.0489  71.9702 0005075  16.4739 335.6938  1.00274282 52364
INTELSAT 10-02          
1 28358U 04022A   26171.39181049 -.00000016  00000+0  00000+0 0  9992
2 28358   0.0164 305.9154 0000101 152.4907 310.2364  1.00270649 80585
ANIK F2                 
1 28378U 04027A   26171.36017014 -.00000055  00000+0  00000+0 0  9999
2 28378   3.2965  79.4060 0004092  10.0614 197.6315  1.00271596 41297
AMC-15                  
1 28446U 04041A   26171.36017014 -.00000093  00000+0  00000+0 0  9993
2 28446   0.0144 359.6314 0002305  75.3144 218.2288  1.00271527 79338
NSS-10                  
1 28526U 05003A   26171.28277340 -.00000258  00000+0  00000+0 0  9995
2 28526   6.4581  70.4174 0002852  12.1151 250.3009  1.00272014 53183
INMARSAT 4-F1           
1 28628U 05009A   26171.35600177  .00000026  00000+0  00000+0 0  9992
2 28628   5.1732  42.7714 0002706  45.6778 126.3856  1.00271541 77706
DIRECTV 8               
1 28659U 05019A   26171.31433647 -.00000003  00000+0  00000+0 0  9995
2 28659   0.0188  33.3038 0003095  61.8276 167.4965  1.00271999 77107
GALAXY 28 (G-28)        
1 28702U 05022A   26171.38661045 -.00000205  00000+0  00000+0 0  9994
2 28702   3.3063  78.8948 0002814  10.7889 291.0100  1.00270752 52002
THAICOM 4               
1 28786U 05028A   26171.44628647 -.00000367  00000+0  00000+0 0  9999
2 28786   0.2549  85.8466 0001774 349.9796 112.9969  1.00271473 52285
ANIK F1R                
1 28868U 05036A   26171.43342742 -.00000080  00000+0  00000+0 0  9999
2 28868   4.3220  76.5421 0004175   5.3355 235.5023  1.00271216 46480
SYRACUSE 3A             
1 28885U 05041B   26170.96159780  .00000122  00000+0  00000+0 0  9995
2 28885   4.6490  75.8044 0002929   5.3723 219.8458  1.00269106 75774
INMARSAT 4-F2           
1 28899U 05044A   26170.99265009 -.00000268  00000+0  00000+0 0  9990
2 28899   5.0996  43.7044 0002972  35.9627 329.3724  1.00270761 75557
METEOSAT-9 (MSG-2)      
1 28912U 05049B   26170.92883707  .00000115  00000+0  00000+0 0  9995
2 28912   9.3683  54.1432 0001774 346.4633 247.5699  1.00273646  7020
EUTELSAT 174A           
1 28924U 05052A   26171.35522177  .00000003  00000+0  00000+0 0  9997
2 28924   4.2287  76.4905 0006308  11.1427 122.7677  1.00272302 52369
ECHOSTAR 10             
1 28935U 06003A   26171.36017014 -.00000060  00000+0  00000+0 0  9990
2 28935   0.0164   1.1897 0001430  77.7268 209.1028  1.00270944 74494
SPAINSAT                
1 28945U 06007A   26171.33795515 -.00000221  00000+0  00000+0 0  9990
2 28945   0.5725  86.4734 0004829 359.2835 274.2855  1.00272395 74248
JCSAT-5A                
1 29045U 06010A   26171.48584654 -.00000332  00000+0  00000+0 0  9995
2 29045   1.1192  84.1884 0002010 350.8139 140.6470  1.00271456 73807
ASTRA 1KR               
1 29055U 06012A   26171.32444138  .00000114  00000+0  00000+0 0  9990
2 29055   0.4831  83.2137 0003417   1.9229 319.1766  1.00273147 45727
GALAXY 16 (G-16)        
1 29236U 06023A   26171.37239705 -.00000131  00000+0  00000+0 0  9990
2 29236   0.0399 169.8247 0002593 277.9696 215.8483  1.00271600 73005
